FENGYUN 1C DEB          
1 30174U 99025UF  17345.95775757  .00001267  00000-0  54465-3 0  9995
2 30174  98.8553  35.8912 0051163  34.6242  88.2167 14.25780917564270
